NORAD_CAT_ID,OBJECT_NAME,OBJECT_TYPE,EPOCH,MEAN_MOTION,ECCENTRICITY,INCLINATION,RA_OF_ASC_NODE,ARG_OF_PERICENTER,MEAN_ANOMALY,BSTAR,MEAN_MOTION_DOT,MEAN_MOTION_DDOT,TLE_LINE0,TLE_LINE1,TLE_LINE2,SEMIMAJOR_AXIS,PERIOD,APOGEE,PERIGEE,DECAYED
56465.0,STARLINK-6054,PAYLOAD,2024-03-30 10:02:26,14.98332234,0.0002965,69.9988,92.6253,269.3688,90.7131,-2.4375e-05,-3.84e-06,0.0,0 STARLINK-6054,1 56465U 23064T   24090.41835680 -.00000384  00000-0 -24375-4 0  9993,2 56465  69.9988  92.6253 0002965 269.3688  90.7131 14.98332234 49999,6950.186,96.107,574.112,569.99,0.0
56465.0,STARLINK-6054,PAYLOAD,2024-03-30 18:03:06,14.98334614,0.0003012,69.9988,91.7838,271.7963,88.2851,-6.2481e-05,-8.39e-06,0.0,0 STARLINK-6054,1 56465U 23064T   24090.75215608 -.00000839  00000-0 -62481-4 0  9997,2 56465  69.9988  91.7838 0003012 271.7963  88.2851 14.98334614 50048,6950.179,96.107,574.137,569.95,0.0
56465.0,STARLINK-6054,PAYLOAD,2024-03-31 05:16:03,14.98326582,0.0002788,69.9997,90.6051,272.8063,87.2777,-4.4207e-05,-6.2e-06,0.0,0 STARLINK-6054,1 56465U 23064T   24091.21948043 -.00000620  00000-0 -44207-4 0  9999,2 56465  69.9997  90.6051 0002788 272.8063  87.2777 14.98326582 50473,6950.203,96.107,574.006,570.131,0.0
56465.0,STARLINK-6054,PAYLOAD,2024-03-31 10:04:26,14.9833329,0.0002928,69.999,90.0998,268.68,91.4024,5.4676e-05,5.59e-06,0.0,0 STARLINK-6054,1 56465U 23064T   24091.41975274  .00000559  00000-0  54676-4 0  9997,2 56465  69.9990  90.0998 0002928 268.6800  91.4024 14.98333290 50508,6950.183,96.107,574.083,570.013,0.0
56465.0,STARLINK-6054,PAYLOAD,2024-04-01 03:41:55,14.98313808,0.0002892,69.9986,88.2488,275.5951,84.4879,0.00025101,2.902e-05,0.0,0 STARLINK-6054,1 56465U 23064T   24092.15411851  .00002902  00000-0  25101-3 0  9999,2 56465  69.9986  88.2488 0002892 275.5951  84.4879 14.98313808 50615,6950.243,96.108,574.118,570.098,0.0
56465.0,STARLINK-6054,PAYLOAD,2024-04-01 08:30:19,14.98335212,0.0002593,69.9986,87.7437,268.1448,91.9414,-6.3275e-05,-8.48e-06,0.0,0 STARLINK-6054,1 56465U 23064T   24092.35439411 -.00000848  00000-0 -63275-4 0  9997,2 56465  69.9986  87.7437 0002593 268.1448  91.9414 14.98335212 50644,6950.177,96.107,573.844,570.24,0.0
56465.0,STARLINK-6054,PAYLOAD,2024-04-02 05:20:04,14.98327821,0.000305,69.9991,85.5556,270.6989,89.3821,4.0489e-07,-8.8e-07,0.0,0 STARLINK-6054,1 56465U 23064T   24093.22227690 -.00000088  00000-0  40489-6 0  9997,2 56465  69.9991  85.5556 0003050 270.6989  89.3821 14.98327821 50779,6950.2,96.107,574.184,569.945,0.0
56465.0,STARLINK-6054,PAYLOAD,2024-04-02 06:56:12,14.9832462,0.000298,69.9988,85.387,266.6457,93.4362,6.2163e-05,6.49e-06,0.0,0 STARLINK-6054,1 56465U 23064T   24093.28903738  .00000649  00000-0  62163-4 0  9990,2 56465  69.9988  85.3870 0002980 266.6457  93.4362 14.98324620 50420,6950.21,96.107,574.146,570.003,0.0
56465.0,STARLINK-6054,PAYLOAD,2024-04-02 22:57:33,14.98322088,0.0002934,69.999,83.704,268.9647,91.1175,0.00014822,1.676e-05,0.0,0 STARLINK-6054,1 56465U 23064T   24093.95663517  .00001676  00000-0  14822-3 0  9991,2 56465  69.9990  83.7040 0002934 268.9647  91.1175 14.98322088 50523,6950.217,96.108,574.122,570.043,0.0
56465.0,STARLINK-6054,PAYLOAD,2024-04-03 05:22:05,14.98331432,0.000296,69.999,83.0306,270.8051,89.2769,3.1244e-05,2.8e-06,0.0,0 STARLINK-6054,1 56465U 23064T   24094.22367344  .00000280  00000-0  31244-4 0  9999,2 56465  69.9990  83.0306 0002960 270.8051  89.2769 14.98331432 50925,6950.188,96.107,574.111,569.996,0.0
56465.0,STARLINK-6054,PAYLOAD,2024-04-03 08:34:21,14.98332074,0.000295,69.999,82.6939,271.007,89.0752,3.8262e-05,3.64e-06,0.0,0 STARLINK-6054,1 56465U 23064T   24094.35719271  .00000364  00000-0  38262-4 0  9993,2 56465  69.9990  82.6939 0002950 271.0070  89.0752 14.98332074 50580,6950.186,96.107,574.102,570.001,0.0
56465.0,STARLINK-6054,PAYLOAD,2024-04-03 16:35:01,14.9833532,0.0003097,69.9989,81.8519,269.6343,90.4461,-0.00011505,-1.466e-05,0.0,0 STARLINK-6054,1 56465U 23064T   24094.69099360 -.00001466  00000-0 -11505-3 0  9996,2 56465  69.9989  81.8519 0003097 269.6343  90.4461 14.98335320 50638,6950.176,96.107,574.194,569.889,0.0
56465.0,STARLINK-6054,PAYLOAD,2024-04-04 03:47:58,14.98326108,0.0002976,69.9991,80.6738,271.4047,88.6771,-1.8988e-06,-1.16e-06,0.0,0 STARLINK-6054,1 56465U 23064T   24095.15831777 -.00000116  00000-0 -18988-5 0  9999,2 56465  69.9991  80.6738 0002976 271.4047  88.6771 14.98326108 51063,6950.205,96.107,574.138,570.002,0.0
56465.0,STARLINK-6054,PAYLOAD,2024-04-04 08:36:22,14.98326599,0.0002978,69.9991,80.1688,271.4298,88.6519,-5.9898e-06,-1.64e-06,0.0,0 STARLINK-6054,1 56465U 23064T   24095.35859792 -.00000164  00000-0 -59898-5 0  9996,2 56465  69.9991  80.1688 0002978 271.4298  88.6519 14.98326599 50739,6950.203,96.107,574.138,569.999,0.0
56465.0,STARLINK-6054,PAYLOAD,2024-04-04 16:37:02,14.98329593,0.0002972,69.9993,79.3272,271.4799,88.602,2.4128e-05,1.95e-06,0.0,0 STARLINK-6054,1 56465U 23064T   24095.69239547  .00000195  00000-0  24128-4 0  9992,2 56465  69.9993  79.3272 0002972 271.4799  88.6020 14.98329593 50789,6950.194,96.107,574.125,569.994,0.0
56465.0,STARLINK-6054,PAYLOAD,2024-04-05 05:26:06,14.98335904,0.0002995,69.9992,77.9803,271.1522,88.9294,3.7678e-05,3.57e-06,0.0,0 STARLINK-6054,1 56465U 23064T   24096.22646981  .00000357  00000-0  37678-4 0  9990,2 56465  69.9992  77.9803 0002995 271.1522  88.9294 14.98335904 51227,6950.175,96.107,574.121,569.958,0.0
56465.0,STARLINK-6054,PAYLOAD,2024-04-05 08:38:23,14.98336439,0.0002992,69.9993,77.6437,271.2587,88.8229,4.2972e-05,4.2e-06,0.0,0 STARLINK-6054,1 56465U 23064T   24096.35998887  .00000420  00000-0  42972-4 0  9993,2 56465  69.9993  77.6437 0002992 271.2587  88.8229 14.98336439 50889,6950.173,96.107,574.117,569.958,0.0
56465.0,STARLINK-6054,PAYLOAD,2024-04-05 21:27:28,14.98327859,0.0002877,69.9999,76.2985,270.3757,89.7072,1.0651e-05,3.4e-07,0.0,0 STARLINK-6054,1 56465U 23064T   24096.89407421  .00000034  00000-0  10651-4 0  9991,2 56465  69.9999  76.2985 0002877 270.3757  89.7072 14.98327859 51321,6950.2,96.107,574.064,570.065,0.0
56465.0,STARLINK-6054,PAYLOAD,2024-04-06 08:40:24,14.98324217,0.0003008,69.9994,75.1188,271.4746,88.6068,-2.7003e-05,-4.15e-06,0.0,0 STARLINK-6054,1 56465U 23064T   24097.36139927 -.00000415  00000-0 -27003-4 0  9991,2 56465  69.9994  75.1188 0003008 271.4746  88.6068 14.98324217 51032,6950.211,96.107,574.166,569.985,0.0
56465.0,STARLINK-6054,PAYLOAD,2024-04-06 23:05:37,14.98339905,0.0002563,69.9992,73.6036,276.9438,83.143,-0.00016531,-2.065e-05,0.0,0 STARLINK-6054,1 56465U 23064T   24097.96223554 -.00002065  00000-0 -16531-3 0  9993,2 56465  69.9992  73.6036 0002563 276.9438  83.1430 14.98339905 51121,6950.162,96.106,573.809,570.246,0.0
56465.0,STARLINK-6054,PAYLOAD,2024-04-07 08:42:24,14.98379125,0.0002678,69.9995,72.594,274.6987,85.3866,-0.00071869,-8.668e-05,0.0,0 STARLINK-6054,1 56465U 23064T   24098.36278034 -.00008668  00000-0 -71869-3 0  9991,2 56465  69.9995  72.5940 0002678 274.6987  85.3866 14.98379125 51548,6950.041,96.104,573.767,570.045,0.0
56465.0,STARLINK-6054,PAYLOAD,2024-04-07 21:31:29,14.98373738,0.0003085,69.9997,71.2481,267.3064,92.7742,-0.00071296,-8.599e-05,0.0,0 STARLINK-6054,1 56465U 23064T   24098.89687142 -.00008599  00000-0 -71296-3 0  9990,2 56465  69.9997  71.2481 0003085 267.3064  92.7742 14.98373738 51622,6950.058,96.104,574.067,569.779,0.0
56465.0,STARLINK-6054,PAYLOAD,2024-04-07 23:07:38,14.98325223,0.0002935,69.9998,71.0797,272.144,87.9382,4.7703e-05,4.76e-06,0.0,0 STARLINK-6054,1 56465U 23064T   24098.96363591  .00000476  00000-0  47703-4 0  9998,2 56465  69.9998  71.0797 0002935 272.1440  87.9382 14.98325223 51279,6950.208,96.107,574.113,570.033,0.0
56465.0,STARLINK-6054,PAYLOAD,2024-04-08 03:56:02,14.98326061,0.0002931,69.9998,70.5749,270.6614,89.421,5.3822e-05,5.49e-06,0.0,0 STARLINK-6054,1 56465U 23064T   24099.16391561  .00000549  00000-0  53822-4 0  9999,2 56465  69.9998  70.5749 0002931 270.6614  89.4210 14.98326061 51663,6950.205,96.107,574.107,570.033,0.0
56465.0,STARLINK-6054,PAYLOAD,2024-04-08 07:08:18,14.98327391,0.0002912,69.9999,70.2383,271.3546,88.728,6.59e-05,6.93e-06,0.0,0 STARLINK-6054,1 56465U 23064T   24099.29743471  .00000693  00000-0  65900-4 0  9994,2 56465  69.9999  70.2383 0002912 271.3546  88.7280 14.98327391 51325,6950.201,96.107,574.09,570.042,0.0
56465.0,STARLINK-6054,PAYLOAD,2024-04-08 23:09:38,14.98334416,0.000284,70.0001,68.5546,269.1027,90.9806,6.5777e-06,-1.4e-07,0.0,0 STARLINK-6054,1 56465U 23064T   24099.96503144 -.00000014  00000-0  65777-5 0  9990,2 56465  70.0001  68.5546 0002840 269.1027  90.9806 14.98334416 51428,6950.179,96.107,574.018,570.07,0.0
56465.0,STARLINK-6054,PAYLOAD,2024-04-09 03:58:02,14.98333994,0.0002851,70.0001,68.0496,269.117,90.9662,1.9584e-06,-7e-07,0.0,0 STARLINK-6054,1 56465U 23064T   24100.16531126 -.00000070  00000-0  19584-5 0  9993,2 56465  70.0001  68.0496 0002851 269.1170  90.9662 14.98333994 51811,6950.181,96.107,574.027,570.064,0.0
56465.0,STARLINK-6054,PAYLOAD,2024-04-09 08:46:26,14.98335192,0.0002832,70.0002,67.5447,269.0335,91.05,1.6244e-05,1.01e-06,0.0,0 STARLINK-6054,1 56465U 23064T   24100.36558946  .00000101  00000-0  16244-4 0  9997,2 56465  70.0002  67.5447 0002832 269.0335  91.0500 14.98335192 51481,6950.177,96.107,574.01,570.074,0.0
56465.0,STARLINK-6054,PAYLOAD,2024-04-09 21:35:31,14.9832739,0.0002873,70.0,66.1979,270.1056,89.9774,-1.3302e-05,-2.52e-06,0.0,0 STARLINK-6054,1 56465U 23064T   24100.89967464 -.00000252  00000-0 -13302-4 0  9995,2 56465  70.0000  66.1979 0002873 270.1056  89.9774 14.98327390 51561,6950.201,96.107,574.063,570.069,0.0
56465.0,STARLINK-6054,PAYLOAD,2024-04-10 04:00:04,14.98327687,0.0002768,70.0006,65.5237,267.7986,92.2856,-1.6204e-05,-2.86e-06,0.0,0 STARLINK-6054,1 56465U 23064T   24101.16671477 -.00000286  00000-0 -16204-4 0  9993,2 56465  70.0006  65.5237 0002768 267.7986  92.2856 14.98327687 51965,6950.2,96.107,573.989,570.141,0.0
